ATLAS CENTAUR R/B       
1 06155U 72065B   25330.71062971  .00001395  00000+0  19441-3 0  9992
2 06155  35.0002 189.0901 0034359 225.0804 134.7106 14.77346653826028
SL-8 R/B                
1 08459U 75112B   25331.10946300  .00000302  00000+0  10822-3 0  9999
2 08459  74.0601 207.6069 0016224 320.9305  39.0676 14.38130427617124
SL-3 R/B                
1 10114U 77057B   25331.25338595  .00012432  00000+0  28938-3 0  9991
2 10114  97.5687 133.9850 0006594 298.1335  61.9245 15.42422042652528
SEASAT 1                
1 10967U 78064A   25331.25568422  .00000468  00000+0  16974-3 0  9993
2 10967 108.0091 270.5516 0002005 251.1673 108.9255 14.46034337491708
SL-14 R/B               
1 11267U 79011B   25330.95793175  .00000702  00000+0  67018-4 0  9998
2 11267  82.5248 194.0105 0017218  44.5442 315.7158 14.91742081513466
SL-8 R/B                
1 11574U 79089B   25331.29896717  .00000351  00000+0  11423-3 0  9996
2 11574  74.0686 280.5562 0014571 121.4915 238.7667 14.42267102421342
SL-14 R/B               
1 11672U 80005B   25331.23913260  .00000750  00000+0  73564-4 0  9990
2 11672  82.5161  44.3982 0016755 141.1295 219.1133 14.90762817461229
SL-8 R/B                
1 12139U 81003B   25331.19646591  .00023218  00000+0  62446-3 0  9993
2 12139  82.9305  24.5024 0281662 173.9723 186.5022 15.06296304299223
SL-3 R/B                
1 12465U 81046B   25331.28885268  .00011207  00000+0  28608-3 0  9995
2 12465  81.2336  52.4128 0019972  18.1073 342.0875 15.39145823422663
SL-3 R/B                
1 12904U 81103B   25331.25670781  .00006528  00000+0  30192-3 0  9997
2 12904  81.1593 333.4851 0011378 274.0623  85.9307 15.19953635957668
SL-3 R/B                
1 13068U 82013B   25331.24904266  .00004635  00000+0  20719-3 0  9998
2 13068  81.1744 280.7387 0023147 161.0292 199.1807 15.20876491388779
SL-3 R/B                
1 13154U 82039B   25331.26012668  .00003077  00000+0  18911-3 0  9990
2 13154  81.1751 333.9017 0030911 304.2746  55.5553 15.09387669366181
