CCSDS_OMM_VERS = 2.0
CREATION_DATE  = 
ORIGINATOR     = 

OBJECT_NAME    = ATLAS CENTAUR R/B
OBJECT_ID      = 1972-065B
CENTER_NAME    = EARTH
REF_FRAME      = TEME
TIME_SYSTEM    = UTC
MEAN_ELEMENT_THEORY = SGP/SGP4

EPOCH          = 2025-11-26T17:03:18.406944
MEAN_MOTION    = 14.77346653
ECCENTRICITY   = .00343594
INCLINATION    = 35.0002
RA_OF_ASC_NODE = 189.0901
ARG_OF_PERICENTER = 225.0804
MEAN_ANOMALY   = 134.7106

EPHEMERIS_TYPE = 0
CLASSIFICATION_TYPE = U
NORAD_CAT_ID   = 6155
ELEMENT_SET_NO = 999
REV_AT_EPOCH   = 82602
BSTAR          = .19440751E-3
MEAN_MOTION_DOT = .1395E-4
MEAN_MOTION_DDOT = 0

CCSDS_OMM_VERS = 2.0
CREATION_DATE  = 
ORIGINATOR     = 

OBJECT_NAME    = SL-8 R/B
OBJECT_ID      = 1975-112B
CENTER_NAME    = EARTH
REF_FRAME      = TEME
TIME_SYSTEM    = UTC
MEAN_ELEMENT_THEORY = SGP/SGP4

EPOCH          = 2025-11-27T02:37:37.603200
MEAN_MOTION    = 14.38130427
ECCENTRICITY   = .00162245
INCLINATION    = 74.0601
RA_OF_ASC_NODE = 207.6069
ARG_OF_PERICENTER = 320.9305
MEAN_ANOMALY   = 39.0676

EPHEMERIS_TYPE = 0
CLASSIFICATION_TYPE = U
NORAD_CAT_ID   = 8459
ELEMENT_SET_NO = 999
REV_AT_EPOCH   = 61712
BSTAR          = .10822129E-3
MEAN_MOTION_DOT = .302E-5
MEAN_MOTION_DDOT = 0

CCSDS_OMM_VERS = 2.0
CREATION_DATE  = 
ORIGINATOR     = 

OBJECT_NAME    = SL-3 R/B
OBJECT_ID      = 1977-057B
CENTER_NAME    = EARTH
REF_FRAME      = TEME
TIME_SYSTEM    = UTC
MEAN_ELEMENT_THEORY = SGP/SGP4

EPOCH          = 2025-11-27T06:04:52.546080
MEAN_MOTION    = 15.42422042
ECCENTRICITY   = .00065945
INCLINATION    = 97.5687
RA_OF_ASC_NODE = 133.9850
ARG_OF_PERICENTER = 298.1335
MEAN_ANOMALY   = 61.9245

EPHEMERIS_TYPE = 0
CLASSIFICATION_TYPE = U
NORAD_CAT_ID   = 10114
ELEMENT_SET_NO = 999
REV_AT_EPOCH   = 65252
BSTAR          = .28937861E-3
MEAN_MOTION_DOT = .12432E-3
MEAN_MOTION_DDOT = 0

CCSDS_OMM_VERS = 2.0
CREATION_DATE  = 
ORIGINATOR     = 

OBJECT_NAME    = SEASAT 1
OBJECT_ID      = 1978-064A
CENTER_NAME    = EARTH
REF_FRAME      = TEME
TIME_SYSTEM    = UTC
MEAN_ELEMENT_THEORY = SGP/SGP4

EPOCH          = 2025-11-27T06:08:11.116608
MEAN_MOTION    = 14.46034337
ECCENTRICITY   = .00020057
INCLINATION    = 108.0091
RA_OF_ASC_NODE = 270.5516
ARG_OF_PERICENTER = 251.1673
MEAN_ANOMALY   = 108.9255

EPHEMERIS_TYPE = 0
CLASSIFICATION_TYPE = U
NORAD_CAT_ID   = 10967
ELEMENT_SET_NO = 999
REV_AT_EPOCH   = 49170
BSTAR          = .16973587E-3
MEAN_MOTION_DOT = .468E-5
MEAN_MOTION_DDOT = 0

CCSDS_OMM_VERS = 2.0
CREATION_DATE  = 
ORIGINATOR     = 

OBJECT_NAME    = SL-14 R/B
OBJECT_ID      = 1979-011B
CENTER_NAME    = EARTH
REF_FRAME      = TEME
TIME_SYSTEM    = UTC
MEAN_ELEMENT_THEORY = SGP/SGP4

EPOCH          = 2025-11-26T22:59:25.303200
MEAN_MOTION    = 14.91742081
ECCENTRICITY   = .00172189
INCLINATION    = 82.5248
RA_OF_ASC_NODE = 194.0105
ARG_OF_PERICENTER = 44.5442
MEAN_ANOMALY   = 315.7158

EPHEMERIS_TYPE = 0
CLASSIFICATION_TYPE = U
NORAD_CAT_ID   = 11267
ELEMENT_SET_NO = 999
REV_AT_EPOCH   = 51346
BSTAR          = .67018179E-4
MEAN_MOTION_DOT = .702E-5
MEAN_MOTION_DDOT = 0

CCSDS_OMM_VERS = 2.0
CREATION_DATE  = 
ORIGINATOR     = 

OBJECT_NAME    = SL-8 R/B
OBJECT_ID      = 1979-089B
CENTER_NAME    = EARTH
REF_FRAME      = TEME
TIME_SYSTEM    = UTC
MEAN_ELEMENT_THEORY = SGP/SGP4

EPOCH          = 2025-11-27T07:10:30.763488
MEAN_MOTION    = 14.42267102
ECCENTRICITY   = .00145717
INCLINATION    = 74.0686
RA_OF_ASC_NODE = 280.5562
ARG_OF_PERICENTER = 121.4915
MEAN_ANOMALY   = 238.7667

EPHEMERIS_TYPE = 0
CLASSIFICATION_TYPE = U
NORAD_CAT_ID   = 11574
ELEMENT_SET_NO = 999
REV_AT_EPOCH   = 42134
BSTAR          = .1142345E-3
MEAN_MOTION_DOT = .351E-5
MEAN_MOTION_DDOT = 0

CCSDS_OMM_VERS = 2.0
CREATION_DATE  = 
ORIGINATOR     = 

OBJECT_NAME    = SL-14 R/B
OBJECT_ID      = 1980-005B
CENTER_NAME    = EARTH
REF_FRAME      = TEME
TIME_SYSTEM    = UTC
MEAN_ELEMENT_THEORY = SGP/SGP4

EPOCH          = 2025-11-27T05:44:21.056640
MEAN_MOTION    = 14.90762817
ECCENTRICITY   = .00167558
INCLINATION    = 82.5161
RA_OF_ASC_NODE = 44.3982
ARG_OF_PERICENTER = 141.1295
MEAN_ANOMALY   = 219.1133

EPHEMERIS_TYPE = 0
CLASSIFICATION_TYPE = U
NORAD_CAT_ID   = 11672
ELEMENT_SET_NO = 999
REV_AT_EPOCH   = 46122
BSTAR          = .73564477E-4
MEAN_MOTION_DOT = .75E-5
MEAN_MOTION_DDOT = 0

CCSDS_OMM_VERS = 2.0
CREATION_DATE  = 
ORIGINATOR     = 

OBJECT_NAME    = SL-8 R/B
OBJECT_ID      = 1981-003B
CENTER_NAME    = EARTH
REF_FRAME      = TEME
TIME_SYSTEM    = UTC
MEAN_ELEMENT_THEORY = SGP/SGP4

EPOCH          = 2025-11-27T04:42:54.654624
MEAN_MOTION    = 15.06296304
ECCENTRICITY   = .02816621
INCLINATION    = 82.9305
RA_OF_ASC_NODE = 24.5024
ARG_OF_PERICENTER = 173.9723
MEAN_ANOMALY   = 186.5022

EPHEMERIS_TYPE = 0
CLASSIFICATION_TYPE = U
NORAD_CAT_ID   = 12139
ELEMENT_SET_NO = 999
REV_AT_EPOCH   = 29922
BSTAR          = .62445835E-3
MEAN_MOTION_DOT = .23218E-3
MEAN_MOTION_DDOT = 0

CCSDS_OMM_VERS = 2.0
CREATION_DATE  = 
ORIGINATOR     = 

OBJECT_NAME    = SL-3 R/B
OBJECT_ID      = 1981-046B
CENTER_NAME    = EARTH
REF_FRAME      = TEME
TIME_SYSTEM    = UTC
MEAN_ELEMENT_THEORY = SGP/SGP4

EPOCH          = 2025-11-27T06:55:56.871552
MEAN_MOTION    = 15.39145823
ECCENTRICITY   = .00199725
INCLINATION    = 81.2336
RA_OF_ASC_NODE = 52.4128
ARG_OF_PERICENTER = 18.1073
MEAN_ANOMALY   = 342.0875

EPHEMERIS_TYPE = 0
CLASSIFICATION_TYPE = U
NORAD_CAT_ID   = 12465
ELEMENT_SET_NO = 999
REV_AT_EPOCH   = 42266
BSTAR          = .286084E-3
MEAN_MOTION_DOT = .11207E-3
MEAN_MOTION_DDOT = 0

CCSDS_OMM_VERS = 2.0
CREATION_DATE  = 
ORIGINATOR     = 

OBJECT_NAME    = SL-3 R/B
OBJECT_ID      = 1981-103B
CENTER_NAME    = EARTH
REF_FRAME      = TEME
TIME_SYSTEM    = UTC
MEAN_ELEMENT_THEORY = SGP/SGP4

EPOCH          = 2025-11-27T06:09:39.554784
MEAN_MOTION    = 15.19953635
ECCENTRICITY   = .0011378
INCLINATION    = 81.1593
RA_OF_ASC_NODE = 333.4851
ARG_OF_PERICENTER = 274.0623
MEAN_ANOMALY   = 85.9307

EPHEMERIS_TYPE = 0
CLASSIFICATION_TYPE = U
NORAD_CAT_ID   = 12904
ELEMENT_SET_NO = 999
REV_AT_EPOCH   = 95766
BSTAR          = .30191515E-3
MEAN_MOTION_DOT = .6528E-4
MEAN_MOTION_DDOT = 0

CCSDS_OMM_VERS = 2.0
CREATION_DATE  = 
ORIGINATOR     = 

OBJECT_NAME    = SL-3 R/B
OBJECT_ID      = 1982-013B
CENTER_NAME    = EARTH
REF_FRAME      = TEME
TIME_SYSTEM    = UTC
MEAN_ELEMENT_THEORY = SGP/SGP4

EPOCH          = 2025-11-27T05:58:37.285824
MEAN_MOTION    = 15.20876491
ECCENTRICITY   = .00231478
INCLINATION    = 81.1744
RA_OF_ASC_NODE = 280.7387
ARG_OF_PERICENTER = 161.0292
MEAN_ANOMALY   = 199.1807

EPHEMERIS_TYPE = 0
CLASSIFICATION_TYPE = U
NORAD_CAT_ID   = 13068
ELEMENT_SET_NO = 999
REV_AT_EPOCH   = 38877
BSTAR          = .20718891E-3
MEAN_MOTION_DOT = .4635E-4
MEAN_MOTION_DDOT = 0

CCSDS_OMM_VERS = 2.0
CREATION_DATE  = 
ORIGINATOR     = 

OBJECT_NAME    = SL-3 R/B
OBJECT_ID      = 1982-039B
CENTER_NAME    = EARTH
REF_FRAME      = TEME
TIME_SYSTEM    = UTC
MEAN_ELEMENT_THEORY = SGP/SGP4

EPOCH          = 2025-11-27T06:14:34.945152
MEAN_MOTION    = 15.09387669
ECCENTRICITY   = .00309118
INCLINATION    = 81.1751
RA_OF_ASC_NODE = 333.9017
ARG_OF_PERICENTER = 304.2746
MEAN_ANOMALY   = 55.5553

EPHEMERIS_TYPE = 0
CLASSIFICATION_TYPE = U
NORAD_CAT_ID   = 13154
ELEMENT_SET_NO = 999
REV_AT_EPOCH   = 36618
BSTAR          = .1891128E-3
MEAN_MOTION_DOT = .3077E-4
MEAN_MOTION_DDOT = 0

